STARLINK-1942_new
1 16794C 20074BH  21326.13682803  .00004133  00000-0  27697-3 0  3267
2 16794  53.0513 163.1345 0001874  80.1701 226.9723 15.06389771    18
STARLINK-1942_old
1 26794C 20074BH  21325.14118456  .00003644  00000-0  24422-3 0  3253
2 26794  53.0511 167.6044 0001828  80.0350 224.7418 15.06386065    19
